HST                     
1 20580U 90037B   26066.07173350  .00008800  00000+0  29166-3 0  9992
2 20580  28.4710  57.8566 0001811 100.2256 259.8544 15.29432289772911
POLAR                   
1 23802U 96013A   26064.05696403  .00000171  00000+0  00000+0 0  9992
2 23802  79.7448 228.2423 6364650 212.6113  83.8068  1.29845804143502
SWAS                    
1 25560U 98071A   26066.61237002  .00005810  00000+0  37432-3 0  9999
2 25560  69.8953 129.3185 0003960  17.5707 342.5593 15.08868670481940
CXO                     
1 25867U 99040B   26068.88963123  .00000910  00000+0  00000+0 0  9990
2 25867  54.5228 119.6616 7994404 310.7122   0.6283  0.37803164 16951
XMM-NEWTON              
1 25989U 99066A   26067.62479432  .00000097  00000+0  00000+0 0  9995
2 25989  64.9887 284.2959 4710152  66.6833 359.9644  0.50132007 22505
TERRA                   
1 25994U 99068A   26066.60337939  .00000605  00000+0  13241-3 0  9995
2 25994  97.9598 120.1178 0002573 156.4312 323.6835 14.61012261394771
CLUSTER II-FM7 (SAMBA)  
1 26410U 00041A   26063.25310773  .00003639  00000+0  00000+0 0  9992
2 26410 148.9920  34.5676 8908777 250.6745 359.7226  0.44785609 19832
CLUSTER II-FM8 (TANGO)  
1 26464U 00045B   26049.06287974  .00004776  00000+0  00000+0 0  9997
2 26464 149.0711  33.5376 8890045 249.4570 359.4916  0.44405995 19769
ODIN                    
1 26702U 01007A   26066.60811649  .00055213  00000+0  72390-3 0  9999
2 26702  97.4077 102.5682 0004517 145.2198 214.9354 15.58385033373512
TIMED                   
1 26998U 01055B   26066.43770241  .00002003  00000+0  18659-3 0  9999
2 26998  74.0661  79.8529 0003020 277.7994  82.2848 14.95014644315616
CORIOLIS                
1 27640U 03001A   26066.58564746  .00000197  00000+0  11330-3 0  9995
2 27640  98.7162  75.0106 0014681 142.2388 217.9821 14.19911928199803
SORCE                   
1 27651U 03004A   26066.44015207  .00004771  00000+0  35759-3 0  9991
2 27651  39.9900 121.9226 0016129  37.8131 322.3793 15.03078213256583
MOST                    
1 27843U 03031D   26066.62802496  .00000120  00000+0  75038-4 0  9997
2 27843  98.7083  75.7579 0009821 179.4796 180.6393 14.21298585176283
SCISAT 1                
1 27858U 03036A   26066.25170383  .00001381  00000+0  18152-3 0  9993
2 27858  73.9321  13.8557 0005838 105.3288 254.8534 14.81306988216353
SWIFT                   
1 28485U 04047A   26066.62590232  .00053633  00000+0  64494-3 0  9990
2 28485  20.5529 242.9053 0003634   6.7903 353.2591 15.59064800170945
HINODE (SOLAR-B)        
1 29479U 06041A   26066.59554142  .00000972  00000+0  17604-3 0  9995
2 29479  98.0626  84.2220 0016212 248.7467 111.2007 14.68470309 39963
SHIJIAN-6 02A (SJ-6 02A)
1 29505U 06046A   26066.59881462  .00009934  00000+0  52537-3 0  9999
2 29505  97.6495 106.9263 0004532 118.1383 242.0307 15.15661847 56877
