[{"OBJECT_NAME":"HST","OBJECT_ID":"1990-037B","EPOCH":"2026-03-07T01:43:17.774400","MEAN_MOTION":15.29432289,"ECCENTRICITY":0.00018113,"INCLINATION":28.471,"RA_OF_ASC_NODE":57.8566,"ARG_OF_PERICENTER":100.2256,"MEAN_ANOMALY":259.8544,"EPHEMERIS_TYPE":0,"CLASSIFICATION_TYPE":"U","NORAD_CAT_ID":20580,"ELEMENT_SET_NO":999,"REV_AT_EPOCH":77291,"BSTAR":0.00029166201,"MEAN_MOTION_DOT":8.8e-5,"MEAN_MOTION_DDOT":0},{"OBJECT_NAME":"POLAR","OBJECT_ID":"1996-013A","EPOCH":"2026-03-05T01:22:01.692192","MEAN_MOTION":1.29845804,"ECCENTRICITY":0.63646509,"INCLINATION":79.7448,"RA_OF_ASC_NODE":228.2423,"ARG_OF_PERICENTER":212.6113,"MEAN_ANOMALY":83.8068,"EPHEMERIS_TYPE":0,"CLASSIFICATION_TYPE":"U","NORAD_CAT_ID":23802,"ELEMENT_SET_NO":999,"REV_AT_EPOCH":14350,"BSTAR":0,"MEAN_MOTION_DOT":1.71e-6,"MEAN_MOTION_DDOT":0},{"OBJECT_NAME":"SWAS","OBJECT_ID":"1998-071A","EPOCH":"2026-03-07T14:41:48.769728","MEAN_MOTION":15.0886867,"ECCENTRICITY":0.00039605,"INCLINATION":69.8953,"RA_OF_ASC_NODE":129.3185,"ARG_OF_PERICENTER":17.5707,"MEAN_ANOMALY":342.5593,"EPHEMERIS_TYPE":0,"CLASSIFICATION_TYPE":"U","NORAD_CAT_ID":25560,"ELEMENT_SET_NO":999,"REV_AT_EPOCH":48194,"BSTAR":0.00037432186,"MEAN_MOTION_DOT":5.81e-5,"MEAN_MOTION_DDOT":0},{"OBJECT_NAME":"CXO","OBJECT_ID":"1999-040B","EPOCH":"2026-03-09T21:21:04.138272","MEAN_MOTION":0.37803164,"ECCENTRICITY":0.7994404,"INCLINATION":54.5228,"RA_OF_ASC_NODE":119.6616,"ARG_OF_PERICENTER":310.7122,"MEAN_ANOMALY":0.6283,"EPHEMERIS_TYPE":0,"CLASSIFICATION_TYPE":"U","NORAD_CAT_ID":25867,"ELEMENT_SET_NO":999,"REV_AT_EPOCH":1695,"BSTAR":0,"MEAN_MOTION_DOT":9.1e-6,"MEAN_MOTION_DDOT":0},{"OBJECT_NAME":"XMM-NEWTON","OBJECT_ID":"1999-066A","EPOCH":"2026-03-08T14:59:42.229248","MEAN_MOTION":0.50132007,"ECCENTRICITY":0.47101526,"INCLINATION":64.9887,"RA_OF_ASC_NODE":284.2959,"ARG_OF_PERICENTER":66.6833,"MEAN_ANOMALY":359.9644,"EPHEMERIS_TYPE":0,"CLASSIFICATION_TYPE":"U","NORAD_CAT_ID":25989,"ELEMENT_SET_NO":999,"REV_AT_EPOCH":2250,"BSTAR":0,"MEAN_MOTION_DOT":9.7e-7,"MEAN_MOTION_DDOT":0},{"OBJECT_NAME":"TERRA","OBJECT_ID":"1999-068A","EPOCH":"2026-03-07T14:28:51.979296","MEAN_MOTION":14.61012261,"ECCENTRICITY":0.00025739,"INCLINATION":97.9598,"RA_OF_ASC_NODE":120.1178,"ARG_OF_PERICENTER":156.4312,"MEAN_ANOMALY":323.6835,"EPHEMERIS_TYPE":0,"CLASSIFICATION_TYPE":"U","NORAD_CAT_ID":25994,"ELEMENT_SET_NO":999,"REV_AT_EPOCH":39477,"BSTAR":0.00013241389,"MEAN_MOTION_DOT":6.05e-6,"MEAN_MOTION_DDOT":0},{"OBJECT_NAME":"CLUSTER II-FM7 (SAMBA)","OBJECT_ID":"2000-041A","EPOCH":"2026-03-04T06:04:28.507872","MEAN_MOTION":0.44785609,"ECCENTRICITY":0.89087774,"INCLINATION":148.992,"RA_OF_ASC_NODE":34.5676,"ARG_OF_PERICENTER":250.6745,"MEAN_ANOMALY":359.7226,"EPHEMERIS_TYPE":0,"CLASSIFICATION_TYPE":"U","NORAD_CAT_ID":26410,"ELEMENT_SET_NO":999,"REV_AT_EPOCH":1983,"BSTAR":0,"MEAN_MOTION_DOT":3.639e-5,"MEAN_MOTION_DDOT":0},{"OBJECT_NAME":"CLUSTER II-FM8 (TANGO)","OBJECT_ID":"2000-045B","EPOCH":"2026-02-18T01:30:32.809536","MEAN_MOTION":0.44405995,"ECCENTRICITY":0.88900451,"INCLINATION":149.0711,"RA_OF_ASC_NODE":33.5376,"ARG_OF_PERICENTER":249.457,"MEAN_ANOMALY":359.4916,"EPHEMERIS_TYPE":0,"CLASSIFICATION_TYPE":"U","NORAD_CAT_ID":26464,"ELEMENT_SET_NO":999,"REV_AT_EPOCH":1976,"BSTAR":0,"MEAN_MOTION_DOT":4.776e-5,"MEAN_MOTION_DDOT":0},{"OBJECT_NAME":"ODIN","OBJECT_ID":"2001-007A","EPOCH":"2026-03-07T14:35:41.264736","MEAN_MOTION":15.58385033,"ECCENTRICITY":0.00045179,"INCLINATION":97.4077,"RA_OF_ASC_NODE":102.5682,"ARG_OF_PERICENTER":145.2198,"MEAN_ANOMALY":214.9354,"EPHEMERIS_TYPE":0,"CLASSIFICATION_TYPE":"U","NORAD_CAT_ID":26702,"ELEMENT_SET_NO":999,"REV_AT_EPOCH":37351,"BSTAR":0.00072390396,"MEAN_MOTION_DOT":0.00055213,"MEAN_MOTION_DDOT":0},{"OBJECT_NAME":"TIMED","OBJECT_ID":"2001-055B","EPOCH":"2026-03-07T10:30:17.488224","MEAN_MOTION":14.95014644,"ECCENTRICITY":0.000302,"INCLINATION":74.0661,"RA_OF_ASC_NODE":79.8529,"ARG_OF_PERICENTER":277.7994,"MEAN_ANOMALY":82.2848,"EPHEMERIS_TYPE":0,"CLASSIFICATION_TYPE":"U","NORAD_CAT_ID":26998,"ELEMENT_SET_NO":999,"REV_AT_EPOCH":31561,"BSTAR":0.00018659463,"MEAN_MOTION_DOT":2.003e-5,"MEAN_MOTION_DDOT":0},{"OBJECT_NAME":"CORIOLIS","OBJECT_ID":"2003-001A","EPOCH":"2026-03-07T14:03:19.940544","MEAN_MOTION":14.19911928,"ECCENTRICITY":0.00146817,"INCLINATION":98.7162,"RA_OF_ASC_NODE":75.0106,"ARG_OF_PERICENTER":142.2388,"MEAN_ANOMALY":217.9821,"EPHEMERIS_TYPE":0,"CLASSIFICATION_TYPE":"U","NORAD_CAT_ID":27640,"ELEMENT_SET_NO":999,"REV_AT_EPOCH":19980,"BSTAR":0.00011330324,"MEAN_MOTION_DOT":1.97e-6,"MEAN_MOTION_DDOT":0},{"OBJECT_NAME":"SORCE","OBJECT_ID":"2003-004A","EPOCH":"2026-03-07T10:33:49.138848","MEAN_MOTION":15.03078213,"ECCENTRICITY":0.00161299,"INCLINATION":39.99,"RA_OF_ASC_NODE":121.9226,"ARG_OF_PERICENTER":37.8131,"MEAN_ANOMALY":322.3793,"EPHEMERIS_TYPE":0,"CLASSIFICATION_TYPE":"U","NORAD_CAT_ID":27651,"ELEMENT_SET_NO":999,"REV_AT_EPOCH":25658,"BSTAR":0.0003575882,"MEAN_MOTION_DOT":4.771e-5,"MEAN_MOTION_DDOT":0},{"OBJECT_NAME":"MOST","OBJECT_ID":"2003-031D","EPOCH":"2026-03-07T15:04:21.356544","MEAN_MOTION":14.21298585,"ECCENTRICITY":0.00098212,"INCLINATION":98.7083,"RA_OF_ASC_NODE":75.7579,"ARG_OF_PERICENTER":179.4796,"MEAN_ANOMALY":180.6393,"EPHEMERIS_TYPE":0,"CLASSIFICATION_TYPE":"U","NORAD_CAT_ID":27843,"ELEMENT_SET_NO":999,"REV_AT_EPOCH":17628,"BSTAR":7.5037989e-5,"MEAN_MOTION_DOT":1.2e-6,"MEAN_MOTION_DDOT":0},{"OBJECT_NAME":"SCISAT 1","OBJECT_ID":"2003-036A","EPOCH":"2026-03-07T06:02:27.210912","MEAN_MOTION":14.81306988,"ECCENTRICITY":0.0005838,"INCLINATION":73.9321,"RA_OF_ASC_NODE":13.8557,"ARG_OF_PERICENTER":105.3288,"MEAN_ANOMALY":254.8534,"EPHEMERIS_TYPE":0,"CLASSIFICATION_TYPE":"U","NORAD_CAT_ID":27858,"ELEMENT_SET_NO":999,"REV_AT_EPOCH":21635,"BSTAR":0.00018152,"MEAN_MOTION_DOT":1.381e-5,"MEAN_MOTION_DDOT":0},{"OBJECT_NAME":"SWIFT","OBJECT_ID":"2004-047A","EPOCH":"2026-03-07T15:01:17.960448","MEAN_MOTION":15.590648,"ECCENTRICITY":0.00036342,"INCLINATION":20.5529,"RA_OF_ASC_NODE":242.9053,"ARG_OF_PERICENTER":6.7903,"MEAN_ANOMALY":353.2591,"EPHEMERIS_TYPE":0,"CLASSIFICATION_TYPE":"U","NORAD_CAT_ID":28485,"ELEMENT_SET_NO":999,"REV_AT_EPOCH":17094,"BSTAR":0.00064494148,"MEAN_MOTION_DOT":0.00053633,"MEAN_MOTION_DDOT":0},{"OBJECT_NAME":"HINODE (SOLAR-B)","OBJECT_ID":"2006-041A","EPOCH":"2026-03-07T14:17:34.778688","MEAN_MOTION":14.68470309,"ECCENTRICITY":0.00162126,"INCLINATION":98.0626,"RA_OF_ASC_NODE":84.222,"ARG_OF_PERICENTER":248.7467,"MEAN_ANOMALY":111.2007,"EPHEMERIS_TYPE":0,"CLASSIFICATION_TYPE":"U","NORAD_CAT_ID":29479,"ELEMENT_SET_NO":999,"REV_AT_EPOCH":3996,"BSTAR":0.00017604168,"MEAN_MOTION_DOT":9.72e-6,"MEAN_MOTION_DDOT":0},{"OBJECT_NAME":"SHIJIAN-6 02A (SJ-6 02A)","OBJECT_ID":"2006-046A","EPOCH":"2026-03-07T14:22:17.583168","MEAN_MOTION":15.15661847,"ECCENTRICITY":0.00045321,"INCLINATION":97.6495,"RA_OF_ASC_NODE":106.9263,"ARG_OF_PERICENTER":118.1383,"MEAN_ANOMALY":242.0307,"EPHEMERIS_TYPE":0,"CLASSIFICATION_TYPE":"U","NORAD_CAT_ID":29505,"ELEMENT_SET_NO":999,"REV_AT_EPOCH":5687,"BSTAR":0.0005253697,"MEAN_MOTION_DOT":9.934e-5,"MEAN_MOTION_DDOT":0}]
